COSMOS 2251 DEB         
1 38485U 93036BTV 17345.52837237  .00000838  00000-0  18191-3 0  9998
2 38485  74.0222  62.1370 0046365 215.4816 144.3263 14.59121028746460
